IRIDIUM 144             
1 43249U 18030A   25360.55350956  .00000063  00000+0  15323-4 0  9994
2 43249  86.3964   2.5690 0002347  90.4474 269.6991 14.34218573405397
IRIDIUM 149             
1 43250U 18030B   25360.55985175  .00000133  00000+0  40434-4 0  9992
2 43250  86.3965   2.5354 0002233  91.0251 269.1201 14.34219004405413
IRIDIUM 157             
1 43251U 18030C   25360.50911053  .00000285  00000+0  94640-4 0  9998
2 43251  86.3967   2.6059 0002103  86.7096 273.4340 14.34219355405380
IRIDIUM 140             
1 43252U 18030D   25360.45837140  .00000117  00000+0  34866-4 0  9995
2 43252  86.3968   2.6402 0002331  91.6420 268.5043 14.34218722405431
IRIDIUM 145             
1 43253U 18030E   25360.44568630  .00000206  00000+0  66386-4 0  9991
2 43253  86.3966   2.6180 0002554  88.3100 271.8388 14.34219027405368
IRIDIUM 146             
1 43254U 18030F   25360.49644066  .00000288  00000+0  95926-4 0  9997
2 43254  86.3968   2.6097 0002389  88.9309 271.2160 14.34218434405386
IRIDIUM 148             
1 43255U 18030G   25360.46471393  .00000027  00000+0  24815-5 0  9997
2 43255  86.3966   2.6632 0002172  87.7380 272.4065 14.34218166405419
IRIDIUM 142             
1 43256U 18030H   25360.43300141  .00000068  00000+0  17168-4 0  9994
2 43256  86.3963   2.5719 0002621  88.4991 271.6505 14.34218467405376
